{
    "links": {
        "self": "http://www.neowsapp.com/rest/v1/neo/3825061?api_key=iIulBulltgU6a56xZRHN4H3l9WmuAYTsLGpBGhQ2"
    },
    "id": "3825061",
    "neo_reference_id": "3825061",
    "name": "(2018 LH)",
    "designation": "2018 LH",
    "nasa_jpl_url": "http://ssd.jpl.nasa.gov/sbdb.cgi?sstr=3825061",
    "absolute_magnitude_h": 24.1,
    "estimated_diameter": {
        "kilometers": {
            "estimated_diameter_min": 0.040230458,
            "estimated_diameter_max": 0.0899580388
        },
        "meters": {
            "estimated_diameter_min": 40.2304579834,
            "estimated_diameter_max": 89.9580388169
        },
        "miles": {
            "estimated_diameter_min": 0.0249980399,
            "estimated_diameter_max": 0.0558973165
        },
        "feet": {
            "estimated_diameter_min": 131.9896957704,
            "estimated_diameter_max": 295.1379320721
        }
    },
    "is_potentially_hazardous_asteroid": false,
    "close_approach_data": [
        {
            "close_approach_date": "2012-05-20",
            "close_approach_date_full": "2012-May-20 16:44",
            "epoch_date_close_approach": 1337532240000,
            "relative_velocity": {
                "kilometers_per_second": "26.2089918001",
                "kilometers_per_hour": "94352.3704804007",
                "miles_per_hour": "58626.893757669"
            },
            "miss_distance": {
                "astronomical": "0.4838850479",
                "lunar": "188.2312836331",
                "kilometers": "72388172.490687973",
                "miles": "44979924.6388931074"
            },
            "orbiting_body": "Earth"
        },
        {
            "close_approach_date": "2018-06-12",
            "close_approach_date_full": "2018-Jun-12 21:49",
            "epoch_date_close_approach": 1528840140000,
            "relative_velocity": {
                "kilometers_per_second": "10.544593468",
                "kilometers_per_hour": "37960.5364848698",
                "miles_per_hour": "23587.2011286126"
            },
            "miss_distance": {
                "astronomical": "0.1023884453",
                "lunar": "39.8291052217",
                "kilometers": "15317093.329491511",
                "miles": "9517600.4579484118"
            },
            "orbiting_body": "Earth"
        },
        {
            "close_approach_date": "2020-01-03",
            "close_approach_date_full": "2020-Jan-03 11:57",
            "epoch_date_close_approach": 1578052620000,
            "relative_velocity": {
                "kilometers_per_second": "23.8787726913",
                "kilometers_per_hour": "85963.5816887344",
                "miles_per_hour": "53414.4266332027"
            },
            "miss_distance": {
                "astronomical": "0.3937275424",
                "lunar": "153.1600139936",
                "kilometers": "58900801.703374688",
                "miles": "36599261.0481911744"
            },
            "orbiting_body": "Earth"
        }
    ],
    "orbital_data": {
        "orbit_id": "5",
        "orbit_determination_date": "2018-06-15 06:36:45",
        "first_observation_date": "2018-06-03",
        "last_observation_date": "2018-06-14",
        "data_arc_in_days": 11,
        "observations_used": 34,
        "orbit_uncertainty": "8",
        "minimum_orbit_intersection": ".0515107",
        "jupiter_tisserand_invariant": "5.411",
        "epoch_osculation": "2458274.5",
        "eccentricity": ".3665485539927004",
        "semi_major_axis": "1.141048094060902",
        "inclination": "12.48558644877913",
        "ascending_node_longitude": "67.42825698778785",
        "orbital_period": "445.1991758572831",
        "perihelion_distance": ".7227985651467513",
        "perihelion_argument": "289.5964337726988",
        "aphelion_distance": "1.559297622975052",
        "perihelion_time": "2458353.582690744437",
        "mean_anomaly": "296.0516141720715",
        "mean_motion": ".8086268338362887",
        "equinox": "J2000",
        "orbit_class": {
            "orbit_class_type": "APO",
            "orbit_class_description": "Near-Earth asteroid orbits which cross the Earth’s orbit similar to that of 1862 Apollo",
            "orbit_class_range": "a (semi-major axis) > 1.0 AU; q (perihelion) < 1.017 AU"
        }
    },
    "is_sentry_object": false
}